[{"OBJECT_NAME":"LUSAT (LO-19)","OBJECT_ID":"1990-005G","EPOCH":"2026-03-09T14:54:14.260896","MEAN_MOTION":14.34087969,"ECCENTRICITY":0.001234,"INCLINATION":98.8938,"RA_OF_ASC_NODE":87.6461,"ARG_OF_PERICENTER":134.6824,"MEAN_ANOMALY":225.5367,"EPHEMERIS_TYPE":0,"CLASSIFICATION_TYPE":"U","NORAD_CAT_ID":20442,"ELEMENT_SET_NO":999,"REV_AT_EPOCH":88812,"BSTAR":8.4338e-5,"MEAN_MOTION_DOT":1.89e-6,"MEAN_MOTION_DDOT":0},{"OBJECT_NAME":"COSMOS 968","OBJECT_ID":"1977-119A","EPOCH":"2026-03-09T23:24:26.142912","MEAN_MOTION":14.37062131,"ECCENTRICITY":0.00183843,"INCLINATION":74.0311,"RA_OF_ASC_NODE":320.8873,"ARG_OF_PERICENTER":221.8423,"MEAN_ANOMALY":138.1326,"EPHEMERIS_TYPE":0,"CLASSIFICATION_TYPE":"U","NORAD_CAT_ID":10520,"ELEMENT_SET_NO":999,"REV_AT_EPOCH":52455,"BSTAR":6.4001923e-5,"MEAN_MOTION_DOT":1.64e-6,"MEAN_MOTION_DDOT":0}]
